IRIDIUM 63              
1 25286U 98021B   25318.42004874  .00000910  00000+0  30235-3 0  9996
2 25286  86.4017  19.0946 0002294  98.7147 261.4310 14.36703663445417
IRIDIUM 69              
1 25319U 98026A   25318.45649632  .00001303  00000+0  39815-3 0  9998
2 25319  86.4007  31.8908 0001086 183.7339 176.3853 14.41171743444700
IRIDIUM 71              
1 25320U 98026B   25318.65372277  .00000640  00000+0  19198-3 0  9995
2 25320  86.4008  26.4829 0001374  25.5359 334.5908 14.41293594445260
IRIDIUM 73              
1 25344U 98032C   25318.52303663  .00001254  00000+0  30601-3 0  9991
2 25344  86.4417 342.9832 0002090 109.1215 251.0217 14.51935682452374
IRIDIUM 82              
1 25467U 98051A   25318.67034671  .00048027  00000+0  96885-3 0  9999
2 25467  86.3647  35.2009 0067815  82.4705 278.4248 15.43809940447061
